[{"OBJECT_NAME":"STARLINK-4565","OBJECT_ID":"2022-101AM","EPOCH":"2026-03-09T05:30:20.232576","MEAN_MOTION":15.08835108,"ECCENTRICITY":0.00011662,"INCLINATION":53.2162,"RA_OF_ASC_NODE":56.3286,"ARG_OF_PERICENTER":100.3212,"MEAN_ANOMALY":259.7911,"EPHEMERIS_TYPE":0,"CLASSIFICATION_TYPE":"U","NORAD_CAT_ID":53562,"ELEMENT_SET_NO":999,"REV_AT_EPOCH":19703,"BSTAR":-0.00010083223,"MEAN_MOTION_DOT":-1.892e-5,"MEAN_MOTION_DDOT":0},{"OBJECT_NAME":"CZ-6A DEB","OBJECT_ID":"2024-140AF","EPOCH":"2026-03-09T22:09:11.094912","MEAN_MOTION":15.07921552,"ECCENTRICITY":0.0088688,"INCLINATION":88.2867,"RA_OF_ASC_NODE":226.5959,"ARG_OF_PERICENTER":92.2632,"MEAN_ANOMALY":268.8765,"EPHEMERIS_TYPE":0,"CLASSIFICATION_TYPE":"U","NORAD_CAT_ID":60630,"ELEMENT_SET_NO":999,"REV_AT_EPOCH":8531,"BSTAR":0.0046395908,"MEAN_MOTION_DOT":0.00078672,"MEAN_MOTION_DDOT":0}]
